ALOS (DAICHI)           
1 28931U 06002A   25351.73419158  .00001110  00000+0  19545-3 0  9994
2 28931  98.1098 303.1864 0001361 113.5739 246.5610 14.69501788 61443
H-2A R/B                
1 28932U 06002B   26002.65947109  .00016146  00000+0  83427-3 0  9997
2 28932  98.2327 144.1257 0054716 105.8101 254.9171 15.15059265 84437
RESURS-DK 1             
1 29228U 06021A   26002.53430127  .00005107  00000+0  30015-3 0  9991
2 29228  69.9345  48.0920 0006983 241.8740 118.1720 15.12303850 77525
CZ-4B R/B               
1 29507U 06046C   26002.69301558  .00008150  00000+0  41978-3 0  9991
2 29507  97.5705  47.7747 0034916 134.4698 225.9399 15.16121748 50046
CZ-2C R/B               
1 31114U 07010B   26002.78397012  .00000319  00000+0  16534-3 0  9999
2 31114  98.3974 119.3759 0059803 125.3426 235.3362 14.20220226970365
COSMO-SKYMED 1          
1 31598U 07023A   26002.85948660  .00007141  00000+0  64233-3 0  9997
2 31598  97.8826 193.3993 0001288  88.8054 271.3314 14.95954541  5066
COSMOS 2428             
1 31792U 07029A   26002.62366621  .00000352  00000+0  21453-3 0  9999
2 31792  70.9379 342.0313 0004883 354.4683   5.6383 14.12900868954766
SL-16 R/B               
1 31793U 07029B   26002.62156080  .00000192  00000+0  12429-3 0  9991
2 31793  70.9774 311.2621 0002064 270.6221 261.7812 14.14824871956026
KORONAS-FOTON           
1 33504U 09003A   26002.39840276  .00015340  00000+0  36223-3 0  9997
2 33504  82.4307 344.6913 0012622  44.9478 315.2788 15.41640185935523
CZ-2C R/B               
1 37731U 11030B   26002.80902640  .00002536  00000+0  32690-3 0  9993
2 37731  97.8437 321.4532 0052086 203.3243 215.3048 14.80978214780348
H-2A R/B                
1 38341U 12025E   26002.79662429  .00004895  00000+0  44935-3 0  9997
2 38341  98.4627 324.6551 0045082 166.5494 193.6937 14.94605124738379
SHIJIAN-16 (SJ-16)      
1 39358U 13057A   26002.85824859  .00005848  00000+0  57635-3 0  9996
2 39358  74.9737 309.6920 0017948 271.1483  88.7648 14.92084712661687
